NORAD_CAT_ID,OBJECT_NAME,OBJECT_TYPE,EPOCH,MEAN_MOTION,ECCENTRICITY,INCLINATION,RA_OF_ASC_NODE,ARG_OF_PERICENTER,MEAN_ANOMALY,BSTAR,MEAN_MOTION_DOT,MEAN_MOTION_DDOT,TLE_LINE0,TLE_LINE1,TLE_LINE2,SEMIMAJOR_AXIS,PERIOD,APOGEE,PERIGEE,DECAYED
55420.0,STARLINK-5604,PAYLOAD,2024-03-04 03:56:36,14.98331718,0.0002725,69.9996,99.0057,260.4145,99.6706,3.7858e-05,3.59e-06,0.0,0 STARLINK-5604,1 55420U 23014AF  24064.16431341  .00000359  00000-0  37858-4 0  9997,2 55420  69.9996  99.0057 0002725 260.4145  99.6706 14.98331718 61430,6950.188,96.107,573.947,570.159,0.0
55420.0,STARLINK-5604,PAYLOAD,2024-03-04 11:57:16,14.98331645,0.0002937,69.9987,98.1619,268.715,91.3673,0.00021824,2.512e-05,0.0,0 STARLINK-5604,1 55420U 23014AF  24064.49810786  .00002512  00000-0  21824-3 0  9995,2 55420  69.9987  98.1619 0002937 268.7150  91.3673 14.98331645 62427,6950.188,96.107,574.094,570.012,0.0
55420.0,STARLINK-5604,PAYLOAD,2024-03-04 19:57:57,14.98330629,0.0002545,70.0003,97.3211,264.5431,95.5438,3.5466e-06,-5.1e-07,0.0,0 STARLINK-5604,1 55420U 23014AF  24064.83191359 -.00000051  00000-0  35466-5 0  9997,2 55420  70.0003  97.3211 0002545 264.5431  95.5438 14.98330629 62470,6950.191,96.107,573.825,570.287,0.0
55420.0,STARLINK-5604,PAYLOAD,2024-03-05 03:58:38,14.98317651,0.0003201,69.9983,96.4775,264.0923,95.9871,-8.9069e-05,-1.155e-05,0.0,0 STARLINK-5604,1 55420U 23014AF  24065.16572446 -.00001155  00000-0 -89069-4 0  9998,2 55420  69.9983  96.4775 0003201 264.0923  95.9871 14.98317651 61586,6950.231,96.108,574.321,569.871,0.0
55420.0,STARLINK-5604,PAYLOAD,2024-03-05 11:59:18,14.98321853,0.0003084,69.9983,95.6358,264.6628,95.4179,-3.9235e-05,-5.61e-06,0.0,0 STARLINK-5604,1 55420U 23014AF  24065.49952233 -.00000561  00000-0 -39235-4 0  9990,2 55420  69.9983  95.6358 0003084 264.6628  95.4179 14.98321853 62576,6950.218,96.108,574.227,569.94,0.0
55420.0,STARLINK-5604,PAYLOAD,2024-03-06 04:00:38,14.9833063,0.0003294,69.9984,93.9536,267.3771,92.7011,-4.0311e-05,-5.74e-06,0.0,0 STARLINK-5604,1 55420U 23014AF  24066.16711770 -.00000574  00000-0 -40311-4 0  9995,2 55420  69.9984  93.9536 0003294 267.3771  92.7011 14.98330630 61733,6950.191,96.107,574.345,569.767,0.0
55420.0,STARLINK-5604,PAYLOAD,2024-03-06 12:01:19,14.98336162,0.0003072,69.9983,93.1118,268.0146,92.0661,-4.3752e-05,-6.15e-06,0.0,0 STARLINK-5604,1 55420U 23014AF  24066.50091461 -.00000615  00000-0 -43752-4 0  9999,2 55420  69.9983  93.1118 0003072 268.0146  92.0661 14.98336162 62728,6950.174,96.107,574.174,569.904,0.0
55420.0,STARLINK-5604,PAYLOAD,2024-03-07 04:02:39,14.98326308,0.0003059,69.9982,91.4284,266.9484,93.1325,0.00013163,1.478e-05,0.0,0 STARLINK-5604,1 55420U 23014AF  24067.16851553  .00001478  00000-0  13163-3 0  9996,2 55420  69.9982  91.4284 0003059 266.9484  93.1325 14.98326308 61885,6950.204,96.107,574.195,569.943,0.0
55420.0,STARLINK-5604,PAYLOAD,2024-03-07 10:27:11,14.98329733,0.0003048,69.9982,90.755,267.2582,92.8229,0.00012103,1.351e-05,0.0,0 STARLINK-5604,1 55420U 23014AF  24067.43555398  .00001351  00000-0  12103-3 0  9997,2 55420  69.9982  90.7550 0003048 267.2582  92.8229 14.98329733 62867,6950.194,96.107,574.177,569.94,0.0
55420.0,STARLINK-5604,PAYLOAD,2024-03-08 04:04:40,14.9833222,0.0002971,69.9983,88.9031,267.2797,92.8022,2.9083e-06,-5.8e-07,0.0,0 STARLINK-5604,1 55420U 23014AF  24068.16991516 -.00000058  00000-0  29083-5 0  9995,2 55420  69.9983  88.9031 0002971 267.2797  92.8022 14.98332220 62038,6950.186,96.107,574.116,569.986,0.0
55420.0,STARLINK-5604,PAYLOAD,2024-03-08 10:29:12,14.98332163,0.000298,69.9983,88.2297,267.6706,92.4111,1.3111e-06,-7.7e-07,0.0,0 STARLINK-5604,1 55420U 23014AF  24068.43695473 -.00000077  00000-0  13111-5 0  9994,2 55420  69.9983  88.2297 0002980 267.6706  92.4111 14.98332163 63019,6950.186,96.107,574.122,569.98,0.0
55420.0,STARLINK-5604,PAYLOAD,2024-03-08 18:29:53,14.98328494,0.0002967,69.9984,87.3881,268.8363,91.2456,-5.3158e-05,-7.27e-06,0.0,0 STARLINK-5604,1 55420U 23014AF  24068.77075824 -.00000727  00000-0 -53158-4 0  9990,2 55420  69.9984  87.3881 0002967 268.8363  91.2456 14.98328494 63062,6950.198,96.107,574.125,570.0,0.0
55420.0,STARLINK-5604,PAYLOAD,2024-03-09 04:06:41,14.98328454,0.000295,69.9984,86.3784,268.7033,91.3788,-7.1203e-05,-9.42e-06,0.0,0 STARLINK-5604,1 55420U 23014AF  24069.17131886 -.00000942  00000-0 -71203-4 0  9996,2 55420  69.9984  86.3784 0002950 268.7033  91.3788 14.98328454 62185,6950.198,96.107,574.113,570.012,0.0
55420.0,STARLINK-5604,PAYLOAD,2024-03-09 10:31:14,14.98326304,0.0002966,69.9986,85.7053,269.271,90.8109,-7.8145e-05,-1.025e-05,0.0,0 STARLINK-5604,1 55420U 23014AF  24069.43836085 -.00001025  00000-0 -78145-4 0  9993,2 55420  69.9986  85.7053 0002966 269.2710  90.8109 14.98326304 63166,6950.204,96.107,574.131,570.008,0.0
55420.0,STARLINK-5604,PAYLOAD,2024-03-09 18:31:54,14.98329994,0.0003015,69.9986,84.8628,268.6693,91.4121,-4.2537e-05,-6.01e-06,0.0,0 STARLINK-5604,1 55420U 23014AF  24069.77215752 -.00000601  00000-0 -42537-4 0  9997,2 55420  69.9986  84.8628 0003015 268.6693  91.4121 14.98329994 63218,6950.193,96.107,574.153,569.962,0.0
55420.0,STARLINK-5604,PAYLOAD,2024-03-10 04:08:42,14.98329715,0.0002993,69.9985,83.8532,267.6108,92.4708,2.5778e-05,2.15e-06,0.0,0 STARLINK-5604,1 55420U 23014AF  24070.17271556  .00000215  00000-0  25778-4 0  9994,2 55420  69.9985  83.8532 0002993 267.6108  92.4708 14.98329715 62339,6950.194,96.107,574.139,569.979,0.0
55420.0,STARLINK-5604,PAYLOAD,2024-03-10 10:33:14,14.98328872,0.0003073,69.9985,83.1795,269.8282,90.2525,6.2476e-05,6.52e-06,0.0,0 STARLINK-5604,1 55420U 23014AF  24070.43975510  .00000652  00000-0  62476-4 0  9995,2 55420  69.9985  83.1795 0003073 269.8282  90.2525 14.98328872 63315,6950.196,96.107,574.197,569.926,0.0
55420.0,STARLINK-5604,PAYLOAD,2024-03-10 18:33:55,14.98319811,0.0003015,69.9985,82.3377,267.2109,92.8705,0.00022686,2.614e-05,0.0,0 STARLINK-5604,1 55420U 23014AF  24070.77355699  .00002614  00000-0  22686-3 0  9990,2 55420  69.9985  82.3377 0003015 267.2109  92.8705 14.98319811 63364,6950.224,96.108,574.185,569.994,0.0
55420.0,STARLINK-5604,PAYLOAD,2024-03-11 04:10:43,14.98327269,0.0003405,69.9983,81.3278,268.1378,91.9391,0.00011994,1.338e-05,0.0,0 STARLINK-5604,1 55420U 23014AF  24071.17411292  .00001338  00000-0  11994-3 0  9999,2 55420  69.9983  81.3278 0003405 268.1378  91.9391 14.98327269 62481,6950.201,96.107,574.433,569.7,0.0
55420.0,STARLINK-5604,PAYLOAD,2024-03-11 10:35:15,14.98332162,0.0003062,69.9984,80.6548,266.3764,93.7045,6.7699e-05,7.15e-06,0.0,0 STARLINK-5604,1 55420U 23014AF  24071.44115165  .00000715  00000-0  67699-4 0  9991,2 55420  69.9984  80.6548 0003062 266.3764  93.7045 14.98332162 63465,6950.186,96.107,574.179,569.923,0.0
55420.0,STARLINK-5604,PAYLOAD,2024-03-12 10:37:16,14.98333654,0.0003143,69.9986,78.1297,270.1038,89.976,5.5966e-07,-8.6e-07,0.0,0 STARLINK-5604,1 55420U 23014AF  24072.44255106 -.00000086  00000-0  55966-6 0  9990,2 55420  69.9986  78.1297 0003143 270.1038  89.9760 14.98333654 62677,6950.182,96.107,574.231,569.862,0.0
55420.0,STARLINK-5604,PAYLOAD,2024-03-12 17:01:48,14.98330386,0.0003111,69.9988,77.4563,270.4232,89.6571,-1.5256e-05,-2.75e-06,0.0,0 STARLINK-5604,1 55420U 23014AF  24072.70959309 -.00000275  00000-0 -15256-4 0  9992,2 55420  69.9988  77.4563 0003111 270.4232  89.6571 14.98330386 63656,6950.192,96.107,574.219,569.894,0.0
55420.0,STARLINK-5604,PAYLOAD,2024-03-13 09:03:09,14.98330525,0.0003026,69.9989,75.7734,270.3152,89.7661,-4.0645e-05,-5.78e-06,0.0,0 STARLINK-5604,1 55420U 23014AF  24073.37719331 -.00000578  00000-0 -40645-4 0  9991,2 55420  69.9989  75.7734 0003026 270.3152  89.7661 14.98330525 63750,6950.191,96.107,574.159,569.953,0.0
55420.0,STARLINK-5604,PAYLOAD,2024-03-13 17:03:49,14.98330669,0.0003025,69.999,74.9317,270.2251,89.8561,-1.0401e-05,-2.17e-06,0.0,0 STARLINK-5604,1 55420U 23014AF  24073.71099214 -.00000217  00000-0 -10401-4 0  9997,2 55420  69.9990  74.9317 0003025 270.2251  89.8561 14.98330669 62868,6950.191,96.107,574.158,569.953,0.0
55420.0,STARLINK-5604,PAYLOAD,2024-03-14 05:52:54,14.98332304,0.0003045,69.9989,73.5848,268.4833,91.5977,7.9442e-06,2e-08,0.0,0 STARLINK-5604,1 55420U 23014AF  24074.24506966  .00000002  00000-0  79442-5 0  9994,2 55420  69.9989  73.5848 0003045 268.4833  91.5977 14.98332304 63889,6950.186,96.107,574.167,569.934,0.0
55420.0,STARLINK-5604,PAYLOAD,2024-03-14 09:05:10,14.98333198,0.0003018,69.9989,73.248,269.0594,91.0219,2.0784e-05,1.55e-06,0.0,0 STARLINK-5604,1 55420U 23014AF  24074.37858854  .00000155  00000-0  20784-4 0  9997,2 55420  69.9989  73.2480 0003018 269.0594  91.0219 14.98333198 63908,6950.183,96.107,574.146,569.95,0.0
55420.0,STARLINK-5604,PAYLOAD,2024-03-15 04:18:47,14.98327007,0.0003032,69.9988,71.2279,269.2187,90.8625,-6.5086e-06,-1.71e-06,0.0,0 STARLINK-5604,1 55420U 23014AF  24075.17971284 -.00000171  00000-0 -65086-5 0  9994,2 55420  69.9988  71.2279 0003032 269.2187  90.8625 14.98327007 63086,6950.202,96.107,574.174,569.96,0.0
55420.0,STARLINK-5604,PAYLOAD,2024-03-15 09:07:11,14.98328787,0.0003014,69.9989,70.723,269.1363,90.9451,1.2278e-05,5.3e-07,0.0,0 STARLINK-5604,1 55420U 23014AF  24075.37999136  .00000053  00000-0  12278-4 0  9993,2 55420  69.9989  70.7230 0003014 269.1363  90.9451 14.98328787 64055,6950.197,96.107,574.156,569.967,0.0
55420.0,STARLINK-5604,PAYLOAD,2024-03-16 04:20:47,14.98330107,0.0003097,69.9988,68.7028,267.9008,92.1796,-4.1096e-06,-1.42e-06,0.0,0 STARLINK-5604,1 55420U 23014AF  24076.18111025 -.00000142  00000-0 -41096-5 0  9998,2 55420  69.9988  68.7028 0003097 267.9008  92.1796 14.98330107 63233,6950.193,96.107,574.21,569.905,0.0
55420.0,STARLINK-5604,PAYLOAD,2024-03-16 09:09:11,14.9833245,0.0003149,69.9989,68.1983,268.8798,91.2,-6.6538e-06,-1.72e-06,0.0,0 STARLINK-5604,1 55420U 23014AF  24076.38138870 -.00000172  00000-0 -66538-5 0  9998,2 55420  69.9989  68.1983 0003149 268.8798  91.2000 14.98332450 64201,6950.185,96.107,574.239,569.862,0.0
